{
    "links": {
        "self": "http://www.neowsapp.com/rest/v1/neo/54054408?api_key=iIulBulltgU6a56xZRHN4H3l9WmuAYTsLGpBGhQ2"
    },
    "id": "54054408",
    "neo_reference_id": "54054408",
    "name": "(2020 SD)",
    "designation": "2020 SD",
    "nasa_jpl_url": "http://ssd.jpl.nasa.gov/sbdb.cgi?sstr=54054408",
    "absolute_magnitude_h": 22.852,
    "estimated_diameter": {
        "kilometers": {
            "estimated_diameter_min": 0.0714751337,
            "estimated_diameter_max": 0.1598232577
        },
        "meters": {
            "estimated_diameter_min": 71.4751337318,
            "estimated_diameter_max": 159.8232577251
        },
        "miles": {
            "estimated_diameter_min": 0.0444125753,
            "estimated_diameter_max": 0.0993095375
        },
        "feet": {
            "estimated_diameter_min": 234.4984777526,
            "estimated_diameter_max": 524.354536875
        }
    },
    "is_potentially_hazardous_asteroid": false,
    "close_approach_data": [
        {
            "close_approach_date": "2020-09-06",
            "close_approach_date_full": "2020-Sep-06 02:35",
            "epoch_date_close_approach": 1599359700000,
            "relative_velocity": {
                "kilometers_per_second": "12.9126013314",
                "kilometers_per_hour": "46485.3647931937",
                "miles_per_hour": "28884.1979183042"
            },
            "miss_distance": {
                "astronomical": "0.0509316191",
                "lunar": "19.8123998299",
                "kilometers": "7619261.733011317",
                "miles": "4734389.7043254946"
            },
            "orbiting_body": "Earth"
        },
        {
            "close_approach_date": "2027-05-21",
            "close_approach_date_full": "2027-May-21 06:44",
            "epoch_date_close_approach": 1810881840000,
            "relative_velocity": {
                "kilometers_per_second": "20.3951983452",
                "kilometers_per_hour": "73422.714042832",
                "miles_per_hour": "45622.0191784474"
            },
            "miss_distance": {
                "astronomical": "0.3166631493",
                "lunar": "123.1819650777",
                "kilometers": "47372132.642771991",
                "miles": "29435678.2736798358"
            },
            "orbiting_body": "Earth"
        }
    ],
    "orbital_data": {
        "orbit_id": "6",
        "orbit_determination_date": "2020-10-16 08:04:43",
        "first_observation_date": "2020-09-16",
        "last_observation_date": "2020-10-15",
        "data_arc_in_days": 29,
        "observations_used": 56,
        "orbit_uncertainty": "6",
        "minimum_orbit_intersection": ".0268129",
        "jupiter_tisserand_invariant": "3.313",
        "epoch_osculation": "2459000.5",
        "eccentricity": ".6090643777100275",
        "semi_major_axis": "2.28150120912103",
        "inclination": "10.67882600825586",
        "ascending_node_longitude": "342.7514432234333",
        "orbital_period": "1258.721011367868",
        "perihelion_distance": ".8919200949430545",
        "perihelion_argument": "324.333532504084",
        "aphelion_distance": "3.671082323299005",
        "perihelion_time": "2459070.932255308851",
        "mean_anomaly": "339.8560509579227",
        "mean_motion": ".2860046005022062",
        "equinox": "J2000",
        "orbit_class": {
            "orbit_class_type": "APO",
            "orbit_class_description": "Near-Earth asteroid orbits which cross the Earth’s orbit similar to that of 1862 Apollo",
            "orbit_class_range": "a (semi-major axis) > 1.0 AU; q (perihelion) < 1.017 AU"
        }
    },
    "is_sentry_object": false
}